RAVAN                   
1 41849U 16067B   19035.21044873  .00001139  00000-0  10139-3 0  9994
2 41849  97.9196 132.3922 0010240 109.8121 250.4205 14.98077281121863
CELTEE 1                
1 41850U 16067C   19035.25174097 -.00000018  00000-0  36908-5 0  9992
2 41850  97.9164 131.4367 0009916 109.7002 250.5290 14.96936086121813
OPTICUBE 04             
1 41851U 16067D   19035.84410863 -.00000348  00000-0 -25144-4 0  9998
2 41851  97.9162 131.8782 0010028 108.3012 251.9301 14.96756062121899
AEROCUBE 8D             
1 41852U 16067E   19035.50301170 -.00000264  00000-0 -17802-4 0  9991
2 41852  97.9179 131.3603 0010934 109.2957 250.9447 14.96635729121828
AEROCUBE 8C             
1 41853U 16067F   19035.79017330  .00000212  00000-0  23882-4 0  9991
2 41853  97.9169 131.5972 0011259 111.0988 249.1437 14.96595333121864
PROMETHEUS 2-1          
1 41854U 16067G   19035.77496652 -.00000122  00000-0 -53145-5 0  9996
2 41854  97.9182 131.6615 0011484 109.9625 250.2834 14.96773372121864
PROMETHEUS 2-3          
1 41855U 16067H   19035.84451630 -.00000029  00000-0  27798-5 0  9992
2 41855  97.9183 131.7427 0011630 110.3292 249.9180 14.96774425121877
INS-1B                  
1 41954U 17008G   19035.72793284  .00001327  00000-0  58389-4 0  9999
2 41954  97.4178 102.4355 0007729 253.5523 106.4864 15.23590101109401
BGUSAT                  
1 41999U 17008BD  19034.90814212  .00002605  00000-0  10561-3 0  9991
2 41999  97.4240 103.4579 0006577 274.5099  85.5387 15.25526651108744
DIDO-2                  
1 42000U 17008BE  19035.84851425  .00000972  00000-0  43513-4 0  9995
2 42000  97.4192 103.0773 0006938 276.1086  83.9360 15.23640207108825
PEASSS                  
1 42015U 17008BV  19035.23741742  .00001266  00000-0  54358-4 0  9990
2 42015  97.4197 103.2301 0004870 287.7103  72.3603 15.24536151109260
AL-FARABI 1             
1 42016U 17008BW  19034.76326480  .00001612  00000-0  67344-4 0  9990
2 42016  97.4210 103.1565 0004732 289.1208  70.9517 15.25081881109339
NAYIF-1 (EO-88)         
1 42017U 17008BX  19034.88474364  .00001615  00000-0  67394-4 0  9997
2 42017  97.4207 103.2858 0004710 288.9336  71.1391 15.25111172109371
HAVELSAT                
1 42700U 98067LH  19034.68592406  .00265371  40750-4  50093-3 0  9994
2 42700  51.6196 233.4513 0002240 233.0359 127.0446 16.00309241 98644
CXBN-2                  
1 42704U 98067LM  19035.78336955  .00203002  28420-4  38741-3 0  9994
2 42704  51.6233 229.6191 0003223 256.4520 103.6131 16.00181485 98717
PHOENIX                 
1 42706U 98067LP  19035.76291596  .00043597  00000-0  19796-3 0  9995
2 42706  51.6251 240.1704 0000560 237.8052 122.2896 15.83427517 98568
QBEE50-LTU-OC           
1 42708U 98067LR  19035.77914636  .00230853  33802-4  41501-3 0  9997
2 42708  51.6194 228.7726 0003551 255.1585 104.9033 16.01177248 98664
ALTAIR PATHFINDER       
1 42711U 98067LS  19035.82452123  .00020358  00000-0  15443-3 0  9998
2 42711  51.6326 259.5650 0002101 355.0813   5.0164 15.72332335 97973
SHARC                   
1 42712U 98067LT  19035.83207336  .00056435  00000-0  28828-3 0  9990
2 42712  51.6302 255.8753 0000678 182.9597 177.1401 15.80782551 98260
ZA-AEROSAT              
1 42713U 98067LU  19035.82315623  .00043023  00000-0  21177-3 0  9998
2 42713  51.6322 245.1527 0000566 312.2606  47.8348 15.81704434 98166
CSUNSAT 1               
1 42715U 98067LW  19035.83594951  .00058105  00000-0  25060-3 0  9996
2 42715  51.6290 242.2133 0001045 316.6681  43.4240 15.84392360 98209
SPACECUBE               
1 42717U 98067LY  19035.52658298  .00237959  34852-4  45453-3 0  9999
2 42717  51.6142 230.7186 0002700 240.5285 119.5456 16.00126066 97694
NJUST-1                 
1 42722U 98067MB  19035.82006698  .00048015  00000-0  26988-3 0  9998
2 42722  51.6392 249.5164 0003113  64.6070  25.5733 15.78740911 97179
LILACSAT-1              
1 42725U 98067ME  19035.77153887  .00134161  17759-4  42723-3 0  9994
2 42725  51.6341 237.7244 0001477 165.2874 306.4163 15.90913474 97230
NSIGHT-1                
1 42726U 98067MF  19035.86922097  .00014131  00000-0  13945-3 0  9997
2 42726  51.6372 270.5506 0004695  35.8532 324.2778 15.66208420 96813
SNUSAT-1B               
1 42727U 98067MG  19035.79233318  .00094546  00000-0  30575-3 0  9997
2 42727  51.6263 237.9991 0001240 322.4293  37.6626 15.90067068 97197
POLYITAN-2-SAU          
1 42732U 98067MM  19035.84948260  .08466551  12392-4  69401-3 0  9996
2 42732  51.6102 222.7661 0006965 282.1368 217.9093 16.38912453 97286
SNUSAT-1                
1 42733U 98067MN  19035.76363163  .00131994  17939-4  34561-3 0  9994
2 42733  51.6225 233.9906 0002018 282.2828  77.7954 15.94651254 97138
BEEAGLESAT              
1 42736U 98067MR  19035.80928375  .00056619  00000-0  23040-3 0  9991
2 42736  51.6278 241.2018 0001799  59.7257 300.3925 15.85615698 97105
UCLSAT                  
1 42765U 17036A   19035.86151455  .00001267  00000-0  57778-4 0  9998
2 42765  97.3707  96.6203 0011115 348.5195  11.5786 15.22402903 90105
LITUANICASAT-2          
1 42768U 17036D   19035.30935726  .00002218  00000-0  99272-4 0  9993
2 42768  97.3738  95.6356 0014510 338.1173  21.9442 15.22244747 89868
AALTO-1                 
1 42775U 17036L   19034.88160643  .00000862  00000-0  41760-4 0  9993
2 42775  97.3699  94.7045 0013402 339.7033  20.3668 15.21106981 89711
URSA MAIOR              
1 42776U 17036M   19035.64266294  .00000860  00000-0  41538-4 0  9999
2 42776  97.3705  95.5562 0013123 336.9497  23.1148 15.21224505 89836
COMPASS 2               
1 42777U 17036N   19035.53807785  .00001698  00000-0  76329-4 0  9990
2 42777  97.3737  96.2915 0011921 339.9568  20.1199 15.22445074 89850
DIAMOND RED             
1 42783U 17036U   19035.40115407  .00001056  00000-0  49352-4 0  9990
2 42783  97.3710  95.8742 0011801 350.2504   9.8501 15.21916118 89823
PEGASUS                 
1 42784U 17036V   19035.40446840  .00001173  00000-0  54058-4 0  9998
2 42784  97.3712  96.0352 0011702 350.0661  10.0342 15.22174290 89834
DIAMOND GREEN           
1 42785U 17036W   19035.72868511  .00000991  00000-0  46484-4 0  9998
2 42785  97.3711  96.2151 0011691 349.7565  10.3431 15.21916018 89864
DIAMOND BLUE            
1 42786U 17036X   19035.39894897  .00001049  00000-0  49035-4 0  9998
2 42786  97.3711  95.8914 0011560 351.3415   8.7620 15.21916228 89814
NUDTSAT                 
1 42787U 17036Y   19034.95455774  .00001214  00000-0  54574-4 0  9995
2 42787  97.3744  96.0674 0012618 349.6057  10.4922 15.22975336 89635
SUCHAI                  
1 42788U 17036Z   19034.85399033  .00001472  00000-0  66413-4 0  9991
2 42788  97.3717  95.7095 0011329 351.8034   8.3016 15.22529893 89832
SKCUBE                  
1 42789U 17036AA  19034.73060059  .00001330  00000-0  60410-4 0  9996
2 42789  97.3713  95.5553 0011201 352.4056   7.7009 15.22454164 89738
VZLUSAT-1               
1 42790U 17036AB  19034.81035261  .00001811  00000-0  79923-4 0  9997
2 42790  97.3724  95.9297 0010761 351.9225   8.1837 15.22990560 89765
ROBUSTA-1B              
1 42792U 17036AD  19035.46450558  .00001363  00000-0  61566-4 0  9997
2 42792  97.3712  96.3892 0010726 350.9213   9.1828 15.22616357 89868
CICERO 6                
1 42793U 17036AE  19035.16513230  .00000961  00000-0  44665-4 0  9996
2 42793  97.3699  95.9796 0010051 354.2110   5.9008 15.22318342 89884
D-SAT                   
1 42794U 17036AF  19035.12116048  .00000129  00000-0  16870-4 0  9992
2 42794  97.5602  85.6008 0125638 229.6222 129.3976 14.91013534 88288
TOKI                    
1 42820U 98067MU  19035.86022406  .00060240  00000-0  26316-3 0  9995
2 42820  51.6290 245.3456 0000773 246.8057 113.2865 15.84108156 90519
MAZAALAI (NUMSAT-1)     
1 42822U 98067MW  19035.52857225  .00061550  00000-0  28306-3 0  9991
2 42822  51.6302 248.4190 0000495 299.1141  60.9812 15.83010987 90423
BRAC ONNESHA            
1 42823U 98067MX  19035.80476602  .00054210  00000-0  24312-3 0  9997
2 42823  51.6274 246.5052 0001474 339.3147  20.7796 15.83595664 90479
NIGERIAEDUSAT-1         
1 42824U 98067MY  19035.82433341  .00049402  00000-0  23028-3 0  9993
2 42824  51.6313 247.4540 0001527   7.5837 352.5188 15.82813496 90459
CORVUS BC2              
1 42846U 17042X   19035.67683050  .00000189  00000-0  23932-4 0  9992
2 42846  97.5808 294.8992 0010606 135.4112 224.7962 14.91917525 85038
CORVUS BC1              
1 42847U 17042Y   19035.77316672  .00000069  00000-0  12103-4 0  9992
2 42847  97.5809 295.0766 0010291 134.3048 225.9017 14.92017155 85044
SILU-1 (SILKROAD 1)     
1 42903U 17021F   19035.79682295  .00100310  11855-4  31710-3 0  9999
2 42903  42.7732 343.7116 0015466 170.9124 274.5516 15.90617157 86709
MIRATA                  
1 43015U 17073C   19035.37388262  .00000836  00000-0  71614-4 0  9998
2 43015  97.7178 321.8613 0255136 235.2587 122.4363 14.78681055 65447
MAKERSAT 0              
1 43016U 17073D   19035.03131125  .00000564  00000-0  50146-4 0  9991
2 43016  97.7208 321.7147 0256989 236.5443 121.0962 14.78522462 65384
ASTERIA                 
1 43020U 98067NH  19035.88450973  .00014712  00000-0  14961-3 0  9990
2 43020  51.6416 280.5231 0001576 342.2677  17.8263 15.65415981 68865
DELLINGR (RBLE)         
1 43021U 98067NJ  19035.86645379  .00006876  00000-0  86963-4 0  9999
2 43021  51.6390 287.0767 0001528 328.5280  31.5622 15.60801106 68772
OSIRIS-3U               
1 43027U 98067NL  19035.85531232  .00166801  21552-4  49330-3 0  9996
2 43027  51.6321 255.9574 0003471 231.1665 128.9033 15.92238452 69060
AEROCUBE 7B             
1 43042U 17071F   19035.89065689  .00002969  00000-0  82366-4 0  9993
2 43042  51.6396 346.6359 0005230  37.2436 322.8910 15.40302424 65456
AEROCUBE 7C             
1 43043U 17071G   19035.37174283  .00003485  00000-0  94965-4 0  9990
2 43043  51.6399 349.1822 0005350  36.6776 323.4574 15.40298510 65347
